#aV2021  2  3  0  0  0.00000000     288 DD+AD WGS84 FIT  NGA
## 2143 259200.00000000   300.00000000 59248 0.0000000000000
+   32     1  2  3  4  5  6  7  8  9 10 11 12 13 14 15 16 17
+         18 19 20 21 22 23 24 25 26 27 28 29 30 31 32  0  0
+          0  0  0  0  0  0  0  0  0  0  0  0  0  0  0  0  0
+          0  0  0  0  0  0  0  0  0  0  0  0  0  0  0  0  0
+          0  0  0  0  0  0  0  0  0  0  0  0  0  0  0  0  0
++         2  2  2  2  2  2  2  2  2  2  2  2  2  2  2  2  2
++         2  2  2  2  2  2  2  2  2  2  2  2  2  2  2  0  0
++         0  0  0  0  0  0  0  0  0  0  0  0  0  0  0  0  0
++         0  0  0  0  0  0  0  0  0  0  0  0  0  0  0  0  0
++         0  0  0  0  0  0  0  0  0  0  0  0  0  0  0  0  0
%c cc cc ccc ccc cccc cccc cccc cccc ccccc ccccc ccccc ccccc
%c cc cc ccc ccc cccc cccc cccc cccc ccccc ccccc ccccc ccccc
%f  0.0000000  0.000000000  0.00000000000  0.000000000000000
%f  0.0000000  0.000000000  0.00000000000  0.000000000000000
%i    0    0    0    0      0      0      0      0         0
%i    0    0    0    0      0      0      0      0         0
/*      NGA, ST. LOUIS,MO.                                  
/*   EPHEMERIS COMPUTED FROM 2 DAYS OF DATA                 
/*   EPOCHA v5 SMOOTHER                                     
/*   G2139 IERS2010 SATAF SATAPC                            
*  2021  2  3 16 50  0.00000000
P  1 -20820.401688 -14495.507879  -8671.895346    768.363029                    
V  1  10408.841523   2382.014624 -29475.575774     -0.072727                    
P  2   -415.201340  15881.867548  21944.940622   -573.035168                    
V  2 -25276.813176  -7326.590870   4995.612426     -0.040209                    
P  3 -12826.996794 -18291.910272  14362.523553    -73.369730                    
V  3   -924.973132 -18393.742690 -24016.965862     -0.100176                    
P  4 -12615.838113  -9289.708811  21456.160280   -177.632680                    
V  4  21491.499981 -16729.144884   5343.439717     -0.027499                    
P  5   3154.212233  26132.965973   2561.110698    -32.717448                    
V  5  -3735.385615  -2802.405510  31528.690846     -0.010131                    
P  6 -14695.974946   8864.148979  20350.820325     -3.728315                    
V  6 -23595.910543 -10012.205992 -12669.627440      0.007900                    
P  7 -25504.732461  -6042.214343  -5346.410920     45.722029                    
V  7  -5639.940185  -5101.692868  30269.678654      0.137190                    
P  8  -6096.988954 -14213.840828 -21554.186931     -8.961101                    
V  8  21407.005177 -17103.861041   5512.909821     -0.013652                    
P  9 -20711.466827   2052.405936  16448.996516   -319.394820                    
V  9  14873.070870 -14984.691824  20496.381529     -0.037228                    
P 10  12519.686530 -11047.187799 -20484.179219    -53.588853                    
V 10   5118.748833  25817.296350 -10998.237662     -0.082871                    
P 11 -14318.202554 -12836.694321 -18636.507530    -34.811440                    
V 11  22657.834220  -4725.808586 -14872.975624      0.106279                    
P 12   9452.051958  22111.387751  11199.009920      3.939285                    
V 12   -777.773312  14635.574085 -27484.193534     -0.052642                    
P 13  -5480.169967  18291.698325 -18545.743266     93.113611                    
V 13 -20621.669376  10924.135951  17111.542899      0.042381                    
P 14 -13747.643220   9043.408754 -20857.221953     93.767088                    
V 14  -3671.591503 -26227.451824  -8961.937951      0.037774                    
P 15   8577.444772  13913.107087 -21251.907366   -171.885389                    
V 15 -19022.438331  18235.717644   4695.410202      0.025876                    
P 16    799.574762 -26008.311689   3634.670559   -274.701768                    
V 16   3057.664708   4776.479271  31935.227517     -0.056418                    
P 17 -22130.120210  14552.496558  -1466.576299    388.514771                    
V 17    704.008719  -3125.698033 -32176.377567      0.048203                    
P 18  24856.500660   3814.423330  -8641.284051    345.415669                    
V 18   9206.561731   6377.099627  29252.586782      0.021140                    
P 19 -19545.638253  16967.119841   5461.682422    -43.295030                    
V 19  -7334.533986   2101.273274 -31256.448526      0.050162                    
P 20  16552.726044   1916.726483 -20785.828615    524.864018                    
V 20   6949.530481  25381.601323   7625.454954     -0.001758                    
P 21 -15713.287886 -15451.777234 -14389.103344     92.477865                    
V 21  19180.492254   3631.052202 -23235.635884      0.032731                    
P 22 -10920.931559 -23481.901084   6479.898367   -686.279589                    
V 22   1261.390106  -8545.092664 -29580.946953      0.071785                    
P 23  15440.913390    910.106949 -21617.959923    117.934783                    
V 23   4536.126452  27007.141668   4343.863998      0.006785                    
P 24  17783.762904  15473.610729 -12850.226661      2.828268                    
V 24 -15895.710413  -2266.048248 -24805.474616     -0.004331                    
P 25  15223.453850   9191.109440  19561.120146     73.119065                    
V 25   2808.071563  25171.856484 -13560.658933      0.077335                    
P 26   6093.210886 -21565.591006  14001.900455     39.586004                    
V 26   6184.342206  17137.709978  23883.587147      0.055742                    
P 27   7108.613080 -19767.526272 -16183.207643    -69.137041                    
V 27  16954.639009 -11426.915130  21966.799419     -0.075346                    
P 28 -12443.062636  12427.887979 -19401.024087    620.686028                    
V 28  -2656.534747 -25658.646832 -14140.819826     -0.053358                    
P 29  20385.247244   -401.811219  17004.276697   -288.170366                    
V 29 -17005.941523  13377.354339  20615.751992     -0.072015                    
P 30 -21433.663260   3308.360997 -15434.400535   -379.159196                    
V 30 -17219.042350  -9771.191496  21530.984445     -0.058721                    
P 31  12864.873760 -10503.294661  20743.922052    -97.873420                    
V 31  24143.601821  10779.878678  -9019.954177     -0.023071                    
P 32  20989.390027 -16074.177978  -1184.435958     17.348034                    
V 32    688.653407   3411.051825 -31740.040915      0.015651                    
EOF
